RADFXSAT (FOX-1B)       
1 43017U 17073E   26068.59518419  .00011352  00000+0  51457-3 0  9993
2 43017  97.4852 297.8938 0154575 312.4525  46.3719 15.10873817450344
STARLINK-4784           
1 53839U 22114X   26068.85869947 -.00000396  00000+0 -67699-5 0  9997
2 53839  53.2195 293.6076 0001524  82.9007 277.2158 15.08839080192990
